OPTICUBE 04             
1 41851U 16067D   19173.15669923  .00000598  00000-0  57540-4 0  9998
2 41851  97.9168 270.8093 0009352  24.4527 335.7136 14.96807939142431
AEROCUBE 8D             
1 41852U 16067E   19173.15967628  .00000572  00000-0  55362-4 0  9994
2 41852  97.9180 270.6375 0010127  23.8071 336.3616 14.96717734142417
AEROCUBE 8C             
1 41853U 16067F   19173.51692618 -.00000399  00000-0 -29626-4 0  9992
2 41853  97.9175 270.9355 0010493  21.0887 339.0764 14.96679715142469
PROMETHEUS 2-1          
1 41854U 16067G   19173.21638464  .00000741  00000-0  69842-4 0  9992
2 41854  97.9182 270.7664 0010593  23.5684 336.6021 14.96895211142428
PROMETHEUS 2-3          
1 41855U 16067H   19173.48609832  .00000804  00000-0  75276-4 0  9997
2 41855  97.9186 271.0555 0010805  23.1893 336.9813 14.96901338142464
INS-1B                  
1 41954U 17008G   19173.76368714  .00000767  00000-0  34627-4 0  9998
2 41954  97.3996 238.7529 0010624 125.4719 234.7511 15.23944811130427
BGUSAT                  
1 41999U 17008BD  19173.41420548  .00001313  00000-0  53665-4 0  9994
2 41999  97.4070 240.7899 0009410 137.7485 222.4480 15.26109307129861
DIDO-2                  
1 42000U 17008BE  19173.42458736  .00000540  00000-0  25286-4 0  9998
2 42000  97.4009 238.9650 0009521 142.5620 217.6282 15.23896193129778
PEASSS                  
1 42015U 17008BV  19172.86100920  .00000706  00000-0  31264-4 0  9997
2 42015  97.4017 239.3691 0007305 146.2940 213.8764 15.24856908130234
AL-FARABI 1             
1 42016U 17008BW  19173.18652881  .00000923  00000-0  39276-4 0  9994
2 42016  97.4031 240.2347 0007240 144.2457 215.9267 15.25489372130430
NAYIF-1 (EO-88)         
1 42017U 17008BX  19173.82989931  .00000881  00000-0  37594-4 0  9999
2 42017  97.4028 240.8815 0007235 142.4519 217.7226 15.25523932130555
ALTAIR PATHFINDER       
1 42711U 98067LS  19173.64122680  .00028591  00000-0  14711-3 0  9997
2 42711  51.6337 269.2899 0000673 155.5576 204.5458 15.80953457119711
NJUST-1                 
1 42722U 98067MB  19173.46329141  .00178943  25131-4  29522-3 0  9999
2 42722  51.6298 248.0683 0006768 341.4512 108.8911 16.02675427119041
NSIGHT                  
1 42726U 98067MF  19173.84434427  .00015413  00000-0  12241-3 0  9995
2 42726  51.6363 287.4683 0004192 193.8850 166.2033 15.71466791118474
UCLSAT                  
1 42765U 17036A   19173.80844525  .00000648  00000-0  30718-4 0  9999
2 42765  97.3506 231.7313 0010606 207.4660 152.6017 15.22737298111094
LITUANICASAT-2          
1 42768U 17036D   19172.73582006  .00001214  00000-0  54843-4 0  9991
2 42768  97.3542 230.2844 0014445 203.0336 157.0255 15.22782130110779
AALTO-1                 
1 42775U 17036L   19173.80624317  .00000444  00000-0  22835-4 0  9990
2 42775  97.3490 230.4689 0013402 199.2706 160.8025 15.21333105110834
URSA MAIOR              
1 42776U 17036M   19172.71435754  .00000490  00000-0  24811-4 0  9992
2 42776  97.3502 229.5512 0013132 203.1451 156.9195 15.21463810110678
COMPASS 2               
1 42777U 17036N   19173.14812420  .00000942  00000-0  43110-4 0  9995
2 42777  97.3540 231.1485 0011881 201.6096 158.4640 15.22881403110794
DIAMOND RED             
1 42783U 17036U   19172.86912810  .00000577  00000-0  28105-4 0  9995
2 42783  97.3507 230.4117 0011188 212.5690 147.4857 15.22192745110735
PEGASUS                 
1 42784U 17036V   19172.71616665  .00000655  00000-0  31257-4 0  9998
2 42784  97.3511 230.4826 0011070 212.7240 147.3312 15.22483983110722
DIAMOND GREEN           
1 42785U 17036W   19172.86793238  .00000585  00000-0  28448-4 0  9997
2 42785  97.3510 230.4347 0011059 213.2730 146.7813 15.22193994110805
DIAMOND BLUE            
1 42786U 17036X   19172.80129409  .00000572  00000-0  27871-4 0  9990
2 42786  97.3509 230.3677 0010882 213.7110 146.3435 15.22190850110724
NUDTSAT                 
1 42787U 17036Y   19173.82878791  .00001294  00000-0  57187-4 0  9994
2 42787  97.3539 232.2518 0009746 213.9283 146.1326 15.23448473110773
SUCHAI                  
1 42788U 17036Z   19172.85387938  .00000778  00000-0  36138-4 0  9994
2 42788  97.3516 230.9177 0010685 210.9339 149.1269 15.22897406110837
SKCUBE                  
1 42789U 17036AA  19172.86984886  .00000719  00000-0  33678-4 0  9992
2 42789  97.3512 230.8759 0010563 210.8697 149.1920 15.22798267110750
VZLUSAT-1               
1 42790U 17036AB  19172.89606044  .00000970  00000-0  43635-4 0  9997
2 42790  97.3526 231.3432 0010158 209.3683 150.6985 15.23441570110783
ROBUSTA-1B              
1 42792U 17036AD  19173.72022791  .00000764  00000-0  35432-4 0  9990
2 42792  97.3512 231.8565 0010186 208.1569 151.9118 15.22965079110903
CICERO 6                
1 42793U 17036AE  19173.71533755  .00000505  00000-0  24693-4 0  9997
2 42793  97.3495 231.6357 0009390 209.5329 150.5378 15.22568974110967
D-SAT                   
1 42794U 17036AF  19173.09608073  .00000097  00000-0  13676-4 0  9990
2 42794  97.5389 217.6504 0127877 129.8920 231.3626 14.91095155108841
CORVUS BC2              
1 42846U 17042X   19173.70315931  .00000105  00000-0  15666-4 0  9992
2 42846  97.5656  67.5461 0010830  48.0940 312.1201 14.91973489105618
CORVUS BC1              
1 42847U 17042Y   19173.25375688  .00000272  00000-0  32008-4 0  9992
2 42847  97.5657  67.2215 0010467  48.9990 311.2132 14.92073776105540
MIRATA                  
1 43015U 17073C   19173.40588777  .00000422  00000-0  38084-4 0  9993
2 43015  97.7195  94.4769 0256128 145.4044 216.4137 14.78968928 85849
MAKERSAT 0              
1 43016U 17073D   19173.75893547  .00000273  00000-0  26513-4 0  9994
2 43016  97.7230  95.0154 0258342 144.6233 217.2429 14.78727466 85883
ASTERIA                 
1 43020U 98067NH  19173.80515903  .00019627  00000-0  15934-3 0  9991
2 43020  51.6430 298.6661 0001771 133.7840 226.3304 15.70735087 90507
DELLINGR (RBLE)         
1 43021U 98067NJ  19173.80271197  .00006036  00000-0  70545-4 0  9996
2 43021  51.6393 311.2955 0002508 119.9296 240.1948 15.63154489 90336
AEROCUBE 7B (OCSD B)    
1 43042U 17071F   19173.84884852  .00001715  00000-0  50372-4 0  9992
2 43042  51.6406  32.5965 0004886 161.7079 198.4082 15.41189920 86729
AEROCUBE 7C (OCSD C)    
1 43043U 17071G   19173.84884868  .00001768  00000-0  51607-4 0  9990
2 43043  51.6395  32.6100 0005024 165.8306 194.2821 15.41195723 86691
CHEFSAT                 
1 43044U 17071H   19173.83200904  .00002901  00000-0  72074-4 0  9994
2 43044  51.6399  27.3643 0004949 163.2425 196.8725 15.43838599 86764
ASGARDIA 1              
1 43049U 17071N   19173.86527154  .00001695  00000-0  49668-4 0  9993
2 43049  51.6414  31.9995 0002388 173.6784 186.4232 15.41320738 86695
ISARA                   
1 43050U 17071P   19173.84908776  .00003283  00000-0  81643-4 0  9990
2 43050  51.6388  28.1864 0002367 167.3629 192.7417 15.43335815 86740
PROPCUBE 2 (FAUNA)      
1 43052U 17071R   19173.87023656  .00002078  00000-0  58177-4 0  9997
2 43052  51.6397  31.3006 0002380 168.8077 191.2961 15.41598576 86701
CORVUS BC3              
1 43118U 18004H   19173.74539572  .00000444  00000-0  21997-4 0  9997
2 43118  97.4862 241.0897 0009103 232.0006 128.0409 15.22841114 80092
MICROMAS-2A             
1 43131U 18004W   19173.74835361  .00001084  00000-0  47579-4 0  9992
2 43131  97.4888 241.7885 0008049 232.6968 127.3536 15.24114051 80133
CICERO 7                
1 43143U 18004AJ  19172.85232331  .00000892  00000-0  39523-4 0  9990
2 43143  97.4875 241.1078 0005989 246.7303 113.3304 15.24247908 80012
GOMX-4B                 
1 43196U 18015E   19173.24975655  .00000119  00000-0  78714-5 0  9995
2 43196  97.3901 300.7379 0018011 298.0886  61.8531 15.23939160 76887
GOMX-4A                 
1 43197U 18015F   19173.90954595  .00000139  00000-0  86930-5 0  9990
2 43197  97.3923 301.4150 0017844 296.4229 182.5969 15.24034512 76999
1KUNS-PF                
1 43466U 98067NP  19173.61476367  .00014341  00000-0  14115-3 0  9992
2 43466  51.6379 314.5135 0000715 149.8721 210.2316 15.66265219 63538
UBAKUSAT                
1 43467U 98067NQ  19173.69658746  .00008767  00000-0  10096-3 0  9993
2 43467  51.6379 318.0597 0002483  92.3041 267.8238 15.62856176 63503
BATSU-CS1 (IRAZU)       
1 43468U 98067NR  19173.66058209  .00020535  00000-0  17785-3 0  9998
2 43468  51.6370 311.0455 0000542 189.6532 170.4455 15.69129206163572
CUBERRT                 
1 43546U 98067NU  19172.89809674  .00022457  00000-0  23128-3 0  9992
2 43546  51.6388 323.2246 0004877 144.8526 215.2792 15.64744022 53497
TEMPEST-D               
1 43547U 98067NV  19173.76873893  .00002560  00000-0  40143-4 0  9994
2 43547  51.6395 326.0395 0006074 136.1742 223.9734 15.57979923 53211
RAINCUBE                
1 43548U 98067NW  19173.88698469  .00008953  00000-0  10852-3 0  9997
2 43548  51.6378 321.5659 0005660 149.5637 210.5687 15.61476051 53732
HALOSAT                 
1 43549U 98067NX  19173.82703158  .00009403  00000-0  11388-3 0  9990
2 43549  51.6385 321.9262 0005614 150.7947 209.3361 15.61426389 53286
ENDUROSAT ONE           
1 43551U 98067NZ  19172.75743776  .00011597  00000-0  13122-3 0  9999
2 43551  51.6385 325.2864 0005964 157.4781 202.6476 15.62924663 53554
EQUISAT                 
1 43552U 98067PA  19172.67597833  .00009060  00000-0  10879-3 0  9990
2 43552  51.6395 327.0115 0006299 155.0421 205.0878 15.61701900 53483
AEROCUBE 12A            
1 43556U 18046C   19173.05129232  .00000989  00000-0  47579-4 0  9999
2 43556  51.6432  40.5388 0009114  83.1018 277.0998 15.28707663 52071
AEROCUBE 12B            
1 43557U 18046D   19172.93430378  .00000023  00000-0  13545-4 0  9997
2 43557  51.6435  41.2544 0009189  82.1982 278.0041 15.28580404 52003
UITMSAT-1               
1 43589U 98067PD  19172.67898002  .00010183  00000-0  12105-3 0  9994
2 43589  51.6372 327.7317 0005660 163.0931 197.0252 15.61804382 49215
